     2.100          NAVIGATION                              RINEX VERSION / TYPE
fic2rin                                 02/15/2016 00:04:36 PGM / RUN BY / DATE
                                                            END OF HEADER
25 16  2 14 22  0  0.0 -.117107760161D-03 -.670752342558D-11  .000000000000D+00
     .980000000000D+02 -.425625000000D+02  .417053086221D-08  .189412642693D+01
    -.228546559811D-05  .514117744751D-02  .732950866222D-05  .515355906296D+04
     .792000000000D+05 -.178813934326D-06 -.250350423748D+01  .353902578354D-07
     .978734985384D+00  .247562500000D+03  .695249650590D+00 -.802854870699D-08
    -.240724312848D-09  .100000000000D+01  .188400000000D+04  .000000000000D+00
     .240000000000D+01  .000000000000D+00  .558793544769D-08  .980000000000D+02
     .720060000000D+05  .400000000000D+01
26 16  2 14 22  0  0.0 -.254560261965D-03 -.156887836056D-10  .000000000000D+00
     .740000000000D+02 -.558437500000D+02  .462840707745D-08  .132400470933D+01
    -.267662107944D-05  .851090182550D-03  .641681253910D-05  .515371276283D+04
     .792000000000D+05  .540167093277D-07 -.251067195822D+01  .558793544769D-08
     .960752123411D+00  .251593750000D+03 -.120994801748D+00 -.832391815317D-08
    -.326799326789D-09  .100000000000D+01  .188400000000D+04  .000000000000D+00
     .240000000000D+01  .000000000000D+00  .698491930962D-08  .740000000000D+02
     .720060000000D+05  .400000000000D+01
27 16  2 14 22  0  0.0  .628605484962D-04  .363797880709D-11  .000000000000D+00
     .830000000000D+02 -.327187500000D+02  .416303054979D-08 -.535327687164D+00
    -.178255140781D-05  .320756935980D-02  .995025038719D-05  .515363637352D+04
     .792000000000D+05  .104308128357D-06 -.146127310396D+01  .391155481339D-07
     .970004405857D+00  .193093750000D+03  .206395137437D+00 -.795961726429D-08
     .148577617426D-09  .100000000000D+01  .188400000000D+04  .000000000000D+00
     .240000000000D+01  .000000000000D+00  .139698386192D-08  .830000000000D+02
     .720060000000D+05  .400000000000D+01
28 16  2 14 22  0  0.0  .502456445247D-03  .261479726760D-11  .000000000000D+00
     .180000000000D+02 -.476562500000D+02  .403516808095D-08  .176458243726D+00
    -.243075191975D-05  .199458133429D-01  .704452395439D-05  .515362417030D+04
     .792000000000D+05 -.298023223877D-06 -.242999771104D+01 -.707805156708D-07
     .989591540368D+00  .265031250000D+03 -.162285298952D+01 -.826534428477D-08
    -.268582616115D-09  .100000000000D+01  .188400000000D+04  .000000000000D+00
     .240000000000D+01  .000000000000D+00 -.107102096081D-07  .180000000000D+02
     .720060000000D+05  .400000000000D+01
29 16  2 14 22  0  0.0  .654210336506D-03  .795807864051D-12  .000000000000D+00
     .129000000000D+03 -.128750000000D+02  .403052503040D-08  .197884130065D+01
    -.774860382080D-06  .104571157135D-02  .953674316406D-05  .515361896133D+04
     .792000000000D+05 -.875443220139D-07 -.140231990162D+01  .596046447754D-07
     .976007379014D+00  .203000000000D+03 -.547100404836D+00 -.782818321811D-08
     .211794536378D-09  .100000000000D+01  .188400000000D+04  .000000000000D+00
     .240000000000D+01  .000000000000D+00 -.102445483208D-07  .129000000000D+03
     .720060000000D+05  .400000000000D+01
30 16  2 14 22  0  0.0  .964370556176D-04  .432009983342D-11  .000000000000D+00
     .790000000000D+02  .466562500000D+02  .502128058506D-08  .294850716239D+01
     .246800482273D-05  .170525826979D-02  .459700822830D-05  .515363695908D+04
     .792000000000D+05 -.651925802231D-07  .280151130466D+01  .391155481339D-07
     .953435098719D+00  .288593750000D+03  .302181995166D+01 -.843606568171D-08
     .217866217860D-10  .100000000000D+01  .188400000000D+04  .000000000000D+00
     .240000000000D+01  .000000000000D+00  .325962901115D-08  .790000000000D+02
     .720060000000D+05  .400000000000D+01
31 16  2 14 22  0  0.0  .282644294202D-03 -.170530256582D-11  .000000000000D+00
     .780000000000D+02  .473750000000D+02  .461090634847D-08  .281696977275D+01
     .257231295109D-05  .832419772632D-02  .483542680740D-05  .515369370651D+04
     .792000000000D+05 -.100582838058D-06  .276480790574D+01  .119209289551D-06
     .972478724054D+00  .294406250000D+03 -.431195447650D+00 -.820177020808D-08
    -.892894335490D-11  .100000000000D+01  .188400000000D+04  .000000000000D+00
     .240000000000D+01  .000000000000D+00 -.135041773319D-07  .780000000000D+02
     .720060000000D+05  .400000000000D+01
32 16  2 14 22  0  0.0  .227242708206D-05  .727595761418D-11  .000000000000D+00
     .128000000000D+03  .565937500000D+02  .437518224390D-08 -.287742051897D+00
     .295042991638D-05  .160453491844D-03  .934489071369D-05  .517915832520D+04
     .792000000000D+05 -.745058059692D-08  .167866372679D+01 -.242143869400D-07
     .959913422236D+00  .194437500000D+03 -.140370500709D-02 -.778639576321D-08
     .557166065346D-10  .100000000000D+01  .188400000000D+04  .000000000000D+00
     .240000000000D+01  .630000000000D+02  .279396772385D-08  .128000000000D+03
     .720060000000D+05  .400000000000D+01
18 16  2 14 21 59 44.0  .483572948724D-03  .386535248253D-11  .000000000000D+00
     .000000000000D+00 -.240312500000D+02  .554130224605D-08  .982288679649D+00
    -.126101076603D-05  .166494793957D-01  .922009348869D-05  .515366044426D+04
     .791840000000D+05 -.281259417534D-06  .608003687211D+00  .577419996262D-07
     .925167967999D+00  .185312500000D+03 -.191332877449D+01 -.877929426427D-08
    -.272154193457D-09  .100000000000D+01  .188400000000D+04  .000000000000D+00
     .240000000000D+01  .000000000000D+00 -.111758708954D-07  .000000000000D+00
     .757260000000D+05  .400000000000D+01
18 16  2 14 23 59 44.0  .483600888401D-03  .386535248253D-11  .000000000000D+00
     .140000000000D+02 -.315937500000D+02  .525379027002D-08  .203240240492D+01
    -.177696347237D-05  .166496598395D-01  .870227813721D-05  .515366300964D+04
     .863840000000D+05  .298023223877D-07  .607941005560D+00 -.376254320145D-06
     .925168689218D+00  .191218750000D+03 -.191324737626D+01 -.826748723117D-08
    -.128576784311D-09  .100000000000D+01  .188400000000D+04  .000000000000D+00
     .240000000000D+01  .000000000000D+00 -.111758708954D-07  .140000000000D+02
     .792060000000D+05  .400000000000D+01
 1 16  2 15  0  0  0.0  .117663294077D-04  .102318153949D-11  .000000000000D+00
     .890000000000D+02 -.150000000000D+02  .458519099161D-08 -.166127241329D+01
    -.746920704842D-06  .505384861026D-02  .699050724506D-05  .515364700317D+04
     .864000000000D+05  .372529029846D-08 -.403440174411D+00 -.134110450745D-06
     .964026258420D+00  .247312500000D+03  .465001958638D+00 -.805462122159D-08
     .200722646618D-09  .100000000000D+01  .188400000000D+04  .000000000000D+00
     .240000000000D+01  .000000000000D+00  .512227416039D-08  .890000000000D+02
     .792060000000D+05  .400000000000D+01
 2 16  2 15  0  0  0.0  .599549151957D-03  .000000000000D+00  .000000000000D+00
     .240000000000D+02 -.537500000000D+01  .516878672929D-08 -.118542253966D+01
    -.856816768646D-07  .154345104238D-01  .627525150776D-05  .515371745872D+04
     .864000000000D+05  .307336449623D-06 -.446720014767D+00  .253319740295D-06
     .942735410977D+00  .248500000000D+03 -.216581083021D+01 -.844499462507D-08
     .167864135072D-09  .100000000000D+01  .188400000000D+04  .000000000000D+00
     .240000000000D+01  .000000000000D+00 -.204890966415D-07  .240000000000D+02
     .792060000000D+05  .400000000000D+01
 3 16  2 15  0  0  0.0 -.246786512434D-04 -.477484718431D-11  .000000000000D+00
     .280000000000D+02 -.205312500000D+02  .457661920599D-08  .947198504860D+00
    -.102259218693D-05  .292317825370D-03  .903010368347D-05  .515376298523D+04
     .864000000000D+05  .391155481339D-07  .637349041220D+00  .540167093277D-07
     .959413309061D+00  .204406250000D+03  .307145437753D+01 -.803033449566D-08
    -.212866009581D-09  .100000000000D+01  .188400000000D+04  .000000000000D+00
     .240000000000D+01  .000000000000D+00  .186264514923D-08  .280000000000D+02
     .792060000000D+05  .400000000000D+01
 4 16  2 15  0  0  0.0 -.250226818025D-03 -.909494701773D-12  .000000000000D+00
     .270000000000D+02 -.459062500000D+02  .544772691969D-08  .153972056014D+01
    -.235252082348D-05  .811032438651D-02  .735372304916D-05  .515361523247D+04
     .864000000000D+05 -.225380063057D-06 -.248239111995D+01  .106170773506D-06
     .983491679610D+00  .252281250000D+03  .853808894122D+00 -.807997942072D-08
    -.240367155114D-09  .100000000000D+01  .188400000000D+04  .000000000000D+00
     .240000000000D+01  .630000000000D+02 -.190921127796D-07  .270000000000D+02
     .792060000000D+05  .400000000000D+01
 5 16  2 15  0  0  0.0 -.146027188748D-03  .341060513165D-11  .000000000000D+00
     .400000000000D+02 -.325000000000D+02  .493127683605D-08  .126808043207D+01
    -.158697366714D-05  .456937646959D-02  .857561826706D-05  .515372988701D+04
     .864000000000D+05 -.763684511185D-07  .626812917960D+00 -.149011611938D-07
     .946528756093D+00  .207812500000D+03  .483458630518D+00 -.824462913618D-08
    -.241438628317D-09  .100000000000D+01  .188400000000D+04  .000000000000D+00
     .240000000000D+01  .000000000000D+00 -.107102096081D-07  .400000000000D+02
     .792060000000D+05  .400000000000D+01
 6 16  2 15  0  0  0.0  .145598314703D-03  .602540239925D-11  .000000000000D+00
     .810000000000D+02 -.110937500000D+02  .467805200250D-08 -.738815247123D+00
    -.540167093277D-06  .308777089231D-03  .697374343872D-05  .515363118935D+04
     .864000000000D+05  .186264514923D-07 -.411887726103D+00 -.372529029846D-08
     .963867771727D+00  .248250000000D+03 -.200655304622D+01 -.816998316974D-08
     .204651381694D-09  .100000000000D+01  .188400000000D+04  .000000000000D+00
     .240000000000D+01  .000000000000D+00  .419095158577D-08  .810000000000D+02
     .792060000000D+05  .400000000000D+01
